{
  "type": "FeatureCollection",
  "features": [
    {
      "type": "Feature",
      "properties": {
        "norad_id": 33765,
        "name": "COSMOS 2251 DEB",
        "group": "cosmos-2251-debris",
        "lat": -33.972365318112004,
        "lon": -10.157189936458655,
        "alt_km": 503.70478550680036,
        "timestamp": "2025-12-19T16:54:44.655537+00:00",
        "meta_object_name": "COSMOS 2251 DEB",
        "meta_object_id": "1993-036N",
        "meta_epoch": "2025-12-18T21:23:51.939168",
        "meta_mean_motion": 15.10331503,
        "meta_eccentricity": 0.00649598,
        "meta_inclination": 74.0077,
        "meta_ra_of_asc_node": 160.382,
        "meta_arg_of_pericenter": 251.4693,
        "meta_mean_anomaly": 225.1901,
        "meta_ephemeris_type": 0,
        "meta_classification_type": "U",
        "meta_norad_cat_id": 33765,
        "meta_element_set_no": 999,
        "meta_rev_at_epoch": 89711,
        "meta_bstar": 0.0014035661,
        "meta_mean_motion_dot": 0.0002424,
        "meta_mean_motion_ddot": 0,
        "tle_line1": "1 33765U 93036N   25352.89157337  .00024240  00000+0  14036-2 0  9992",
        "tle_line2": "2 33765  74.0077 160.3820 0064959 251.4693 225.1901 15.10331503897112"
      },
      "geometry": {
        "type": "Point",
        "coordinates": [
          -10.157189936458655,
          -33.972365318112004
        ]
      }
    },
    {
      "type": "Feature",
      "properties": {
        "norad_id": 33766,
        "name": "COSMOS 2251 DEB",
        "group": "cosmos-2251-debris",
        "lat": -16.097652110291154,
        "lon": 117.6400582123184,
        "alt_km": 736.1913844584715,
        "timestamp": "2025-12-19T16:54:44.655548+00:00",
        "meta_object_name": "COSMOS 2251 DEB",
        "meta_object_id": "1993-036P",
        "meta_epoch": "2025-12-18T19:14:15.895104",
        "meta_mean_motion": 14.34950842,
        "meta_eccentricity": 0.00644715,
        "meta_inclination": 74.1856,
        "meta_ra_of_asc_node": 123.9712,
        "meta_arg_of_pericenter": 325.6673,
        "meta_mean_anomaly": 34.032,
        "meta_ephemeris_type": 0,
        "meta_classification_type": "U",
        "meta_norad_cat_id": 33766,
        "meta_element_set_no": 999,
        "meta_rev_at_epoch": 87832,
        "meta_bstar": 0.00038283719,
        "meta_mean_motion_dot": 1.09e-05,
        "meta_mean_motion_ddot": 0,
        "tle_line1": "1 33766U 93036P   25352.80157286  .00001090  00000+0  38284-3 0  9997",
        "tle_line2": "2 33766  74.1856 123.9712 0064471 325.6673  34.0320 14.34950842878327"
      },
      "geometry": {
        "type": "Point",
        "coordinates": [
          117.6400582123184,
          -16.097652110291154
        ]
      }
    },
    {
      "type": "Feature",
      "properties": {
        "norad_id": 33768,
        "name": "COSMOS 2251 DEB",
        "group": "cosmos-2251-debris",
        "lat": 22.13740325117557,
        "lon": 21.954176543600383,
        "alt_km": 1278.4699254299485,
        "timestamp": "2025-12-19T16:54:44.655560+00:00",
        "meta_object_name": "COSMOS 2251 DEB",
        "meta_object_id": "1993-036R",
        "meta_epoch": "2025-12-19T00:46:59.056608",
        "meta_mean_motion": 13.58460151,
        "meta_eccentricity": 0.03666324,
        "meta_inclination": 74.067,
        "meta_ra_of_asc_node": 209.7119,
        "meta_arg_of_pericenter": 6.0838,
        "meta_mean_anomaly": 103.298,
        "meta_ephemeris_type": 0,
        "meta_classification_type": "U",
        "meta_norad_cat_id": 33768,
        "meta_element_set_no": 999,
        "meta_rev_at_epoch": 83381,
        "meta_bstar": 0.0002745073,
        "meta_mean_motion_dot": 2.89e-06,
        "meta_mean_motion_ddot": 0,
        "tle_line1": "1 33768U 93036R   25353.03262797  .00000289  00000+0  27451-3 0  9992",
        "tle_line2": "2 33768  74.0670 209.7119 0366632   6.0838 103.2980 13.58460151833813"
      },
      "geometry": {
        "type": "Point",
        "coordinates": [
          21.954176543600383,
          22.13740325117557
        ]
      }
    },
    {
      "type": "Feature",
      "properties": {
        "norad_id": 33779,
        "name": "COSMOS 2251 DEB",
        "group": "cosmos-2251-debris",
        "lat": 41.31526616747969,
        "lon": -37.35009267575212,
        "alt_km": 648.5561707683555,
        "timestamp": "2025-12-19T16:54:44.655571+00:00",
        "meta_object_name": "COSMOS 2251 DEB",
        "meta_object_id": "1993-036U",
        "meta_epoch": "2025-12-19T05:38:52.809216",
        "meta_mean_motion": 14.70600449,
        "meta_eccentricity": 0.00164897,
        "meta_inclination": 74.0441,
        "meta_ra_of_asc_node": 158.1252,
        "meta_arg_of_pericenter": 191.0609,
        "meta_mean_anomaly": 341.852,
        "meta_ephemeris_type": 0,
        "meta_classification_type": "U",
        "meta_norad_cat_id": 33779,
        "meta_element_set_no": 999,
        "meta_rev_at_epoch": 88623,
        "meta_bstar": 0.0016292214,
        "meta_mean_motion_dot": 9.909e-05,
        "meta_mean_motion_ddot": 0,
        "tle_line1": "1 33779U 93036U   25353.23533344  .00009909  00000+0  16292-2 0  9993",
        "tle_line2": "2 33779  74.0441 158.1252 0016489 191.0609 341.8520 14.70600449886234"
      },
      "geometry": {
        "type": "Point",
        "coordinates": [
          -37.35009267575212,
          41.31526616747969
        ]
      }
    },
    {
      "type": "Feature",
      "properties": {
        "norad_id": 33782,
        "name": "COSMOS 2251 DEB",
        "group": "cosmos-2251-debris",
        "lat": -41.77285802606266,
        "lon": 99.48350577914974,
        "alt_km": 766.9695615012997,
        "timestamp": "2025-12-19T16:54:44.655582+00:00",
        "meta_object_name": "COSMOS 2251 DEB",
        "meta_object_id": "1993-036X",
        "meta_epoch": "2025-12-19T04:54:18.526176",
        "meta_mean_motion": 14.40463711,
        "meta_eccentricity": 0.00209826,
        "meta_inclination": 74.033,
        "meta_ra_of_asc_node": 265.5907,
        "meta_arg_of_pericenter": 329.5275,
        "meta_mean_anomaly": 181.1235,
        "meta_ephemeris_type": 0,
        "meta_classification_type": "U",
        "meta_norad_cat_id": 33782,
        "meta_element_set_no": 999,
        "meta_rev_at_epoch": 88219,
        "meta_bstar": 0.00028957356,
        "meta_mean_motion_dot": 8.96e-06,
        "meta_mean_motion_ddot": 0,
        "tle_line1": "1 33782U 93036X   25353.20438109  .00000896  00000+0  28957-3 0  9995",
        "tle_line2": "2 33782  74.0330 265.5907 0020982 329.5275 181.1235 14.40463711882190"
      },
      "geometry": {
        "type": "Point",
        "coordinates": [
          99.48350577914974,
          -41.77285802606266
        ]
      }
    },
    {
      "type": "Feature",
      "properties": {
        "norad_id": 33785,
        "name": "COSMOS 2251 DEB",
        "group": "cosmos-2251-debris",
        "lat": 63.6283198961723,
        "lon": -169.44667010022627,
        "alt_km": 662.1146437120779,
        "timestamp": "2025-12-19T16:54:44.655594+00:00",
        "meta_object_name": "COSMOS 2251 DEB",
        "meta_object_id": "1993-036AA",
        "meta_epoch": "2025-12-19T05:14:11.164128",
        "meta_mean_motion": 14.70623759,
        "meta_eccentricity": 0.00228627,
        "meta_inclination": 73.8672,
        "meta_ra_of_asc_node": 47.2261,
        "meta_arg_of_pericenter": 345.2992,
        "meta_mean_anomaly": 70.9973,
        "meta_ephemeris_type": 0,
        "meta_classification_type": "U",
        "meta_norad_cat_id": 33785,
        "meta_element_set_no": 999,
        "meta_rev_at_epoch": 88602,
        "meta_bstar": 0.0012811599,
        "meta_mean_motion_dot": 7.8e-05,
        "meta_mean_motion_ddot": 0,
        "tle_line1": "1 33785U 93036AA  25353.21818477  .00007800  00000+0  12812-2 0  9993",
        "tle_line2": "2 33785  73.8672  47.2261 0022862 345.2992  70.9973 14.70623759886020"
      },
      "geometry": {
        "type": "Point",
        "coordinates": [
          -169.44667010022627,
          63.6283198961723
        ]
      }
    },
    {
      "type": "Feature",
      "properties": {
        "norad_id": 33789,
        "name": "COSMOS 2251 DEB",
        "group": "cosmos-2251-debris",
        "lat": 37.12449007292697,
        "lon": 88.0762259200789,
        "alt_km": 1081.7298173704312,
        "timestamp": "2025-12-19T16:54:44.655605+00:00",
        "meta_object_name": "COSMOS 2251 DEB",
        "meta_object_id": "1993-036AE",
        "meta_epoch": "2025-12-18T17:06:20.566656",
        "meta_mean_motion": 13.88808828,
        "meta_eccentricity": 0.02399295,
        "meta_inclination": 74.0645,
        "meta_ra_of_asc_node": 77.2691,
        "meta_arg_of_pericenter": 191.5866,
        "meta_mean_anomaly": 291.2114,
        "meta_ephemeris_type": 0,
        "meta_classification_type": "U",
        "meta_norad_cat_id": 33789,
        "meta_element_set_no": 999,
        "meta_rev_at_epoch": 85178,
        "meta_bstar": 0.0005424512,
        "meta_mean_motion_dot": 8.01e-06,
        "meta_mean_motion_ddot": 0,
        "tle_line1": "1 33789U 93036AE  25352.71273804  .00000801  00000+0  54245-3 0  9991",
        "tle_line2": "2 33789  74.0645  77.2691 0239929 191.5866 291.2114 13.88808828851783"
      },
      "geometry": {
        "type": "Point",
        "coordinates": [
          88.0762259200789,
          37.12449007292697
        ]
      }
    }
  ]
}